start=new Date('2021-09-09T00:00:00.000Z').valueOf();
sats=[{"OBJECT_NAME":"STARLINK-2712","EPOCH":"2021-09-08T22:00:00.999936","TIME_SYSTEM":"UTC","EPHEMERIS_TYPE":"0","TLE_LINE1":"1 48674U 21044AN  21251.91667824  .00030932  00000-0  20877-2 0  9997","BSTAR":"0.00208770000000","RCS_SIZE":"LARGE","ARG_OF_PERICENTER":"75.6598","FILE":"3111148","RA_OF_ASC_NODE":"286.3005","CENTER_NAME":"EARTH","INCLINATION":"53.0535","ELEMENT_SET_NO":"999","PERIOD":"95.594","REF_FRAME":"TEME","MEAN_ELEMENT_THEORY":"SGP4","DECAY_DATE":null,"NORAD_CAT_ID":"48674","APOAPSIS":"547.926","COUNTRY_CODE":"US","GP_ID":"184324466","ECCENTRICITY":"0.00009270","OBJECT_ID":"2021-044AN","MEAN_ANOMALY":"206.1597","MEAN_MOTION":"15.06377083","LAUNCH_DATE":"2021-05-26","CLASSIFICATION_TYPE":"U","SEMIMAJOR_AXIS":"6925.419","REV_AT_EPOCH":"1714","MEAN_MOTION_DDOT":"0.0000000000000","TLE_LINE2":"2 48674  53.0535 286.3005 0000927  75.6598 206.1597 15.06377083 17147","SITE":"AFETR","MEAN_MOTION_DOT":"0.00030932","PERIAPSIS":"546.642","OBJECT_TYPE":"PAYLOAD"},{"MEAN_ANOMALY":"216.1666","MEAN_MOTION":"15.06365588","LAUNCH_DATE":"2021-05-26","APOAPSIS":"548.057","NORAD_CAT_ID":"48675","MEAN_ELEMENT_THEORY":"SGP4","DECAY_DATE":null,"COUNTRY_CODE":"US","GP_ID":"184324971","ECCENTRICITY":"0.00010660","OBJECT_ID":"2021-044AP","TLE_LINE2":"2 48675  53.0526 286.2970 0001066  85.6692 216.1666 15.06365588 17087","MEAN_MOTION_DOT":"0.00031600","SITE":"AFETR","MEAN_MOTION_DDOT":"0.0000000000000","PERIAPSIS":"546.581","OBJECT_TYPE":"PAYLOAD","REV_AT_EPOCH":"1708","SEMIMAJOR_AXIS":"6925.454","CLASSIFICATION_TYPE":"U","EPHEMERIS_TYPE":"0","TLE_LINE1":"1 48675U 21044AP  21251.91667824  .00031600  00000-0  21328-2 0  9993","RCS_SIZE":"LARGE","BSTAR":"0.00213280000000","EPOCH":"2021-09-08T22:00:00.999936","OBJECT_NAME":"STARLINK-2737","TIME_SYSTEM":"UTC","INCLINATION":"53.0526","PERIOD":"95.594","ELEMENT_SET_NO":"999","REF_FRAME":"TEME","FILE":"3111149","ARG_OF_PERICENTER":"85.6692","RA_OF_ASC_NODE":"286.2970","CENTER_NAME":"EARTH"},{"MEAN_ANOMALY":"252.9970","MEAN_MOTION":"15.06379148","LAUNCH_DATE":"2021-05-26","NORAD_CAT_ID":"48676","APOAPSIS":"547.913","MEAN_ELEMENT_THEORY":"SGP4","DECAY_DATE":null,"COUNTRY_CODE":"US","GP_ID":"184324475","ECCENTRICITY":"0.00009170","OBJECT_ID":"2021-044AQ","TLE_LINE2":"2 48676  53.0532 286.2957 0000917  68.8024 252.9970 15.06379148 17146","SITE":"AFETR","MEAN_MOTION_DOT":"0.00031876","MEAN_MOTION_DDOT":"0.0000000000000","PERIAPSIS":"546.642","OBJECT_TYPE":"PAYLOAD","REV_AT_EPOCH":"1714","SEMIMAJOR_AXIS":"6925.412","CLASSIFICATION_TYPE":"U","EPHEMERIS_TYPE":"0","TLE_LINE1":"1 48676U 21044AQ  21251.91667824  .00031876  00000-0  21504-2 0  9995","RCS_SIZE":"LARGE","BSTAR":"0.00215040000000","EPOCH":"2021-09-08T22:00:00.999936","OBJECT_NAME":"STARLINK-2746","TIME_SYSTEM":"UTC","INCLINATION":"53.0532","PERIOD":"95.593","ELEMENT_SET_NO":"999","REF_FRAME":"TEME","FILE":"3111149","ARG_OF_PERICENTER":"68.8024","RA_OF_ASC_NODE":"286.2957","CENTER_NAME":"EARTH"},{"ARG_OF_PERICENTER":"76.4858","FILE":"3111242","RA_OF_ASC_NODE":"286.2958","CENTER_NAME":"EARTH","INCLINATION":"53.0539","ELEMENT_SET_NO":"999","PERIOD":"95.594","REF_FRAME":"TEME","OBJECT_NAME":"STARLINK-2719","EPOCH":"2021-09-08T22:00:00.999936","TIME_SYSTEM":"UTC","EPHEMERIS_TYPE":"0","TLE_LINE1":"1 48677U 21044AR  21251.91667824  .00032223  00000-0  21742-2 0  9997","RCS_SIZE":"LARGE","BSTAR":"0.00217420000000","SEMIMAJOR_AXIS":"6925.449","CLASSIFICATION_TYPE":"U","REV_AT_EPOCH":"1708","MEAN_MOTION_DDOT":"0.0000000000000","SITE":"AFETR","TLE_LINE2":"2 48677  53.0539 286.2958 0000823  76.4858 265.3211 15.06367143 17082","MEAN_MOTION_DOT":"0.00032223","PERIAPSIS":"546.744","OBJECT_TYPE":"PAYLOAD","MEAN_ELEMENT_THEORY":"SGP4","DECAY_DATE":null,"NORAD_CAT_ID":"48677","APOAPSIS":"547.884","COUNTRY_CODE":"US","ECCENTRICITY":"0.00008230","GP_ID":"184326585","OBJECT_ID":"2021-044AR","MEAN_ANOMALY":"265.3211","MEAN_MOTION":"15.06367143","LAUNCH_DATE":"2021-05-26"},{"FILE":"3111252","ARG_OF_PERICENTER":"82.5231","RA_OF_ASC_NODE":"286.2977","CENTER_NAME":"EARTH","INCLINATION":"53.0525","PERIOD":"95.594","ELEMENT_SET_NO":"999","REF_FRAME":"TEME","EPOCH":"2021-09-08T22:00:00.999936","OBJECT_NAME":"STARLINK-2615","TIME_SYSTEM":"UTC","EPHEMERIS_TYPE":"0","TLE_LINE1":"1 48678U 21044AS  21251.91667824  .00032741  00000-0  22083-2 0  9992","RCS_SIZE":"LARGE","BSTAR":"0.00220830000000","REV_AT_EPOCH":"356","CLASSIFICATION_TYPE":"U","SEMIMAJOR_AXIS":"6925.428","SITE":"AFETR","TLE_LINE2":"2 48678  53.0525 286.2977 0000947  82.5231 279.3026 15.06374009  3565","MEAN_MOTION_DOT":"0.00032741","MEAN_MOTION_DDOT":"0.0000000000000","PERIAPSIS":"546.637","OBJECT_TYPE":"PAYLOAD","NORAD_CAT_ID":"48678","APOAPSIS":"547.949","DECAY_DATE":null,"MEAN_ELEMENT_THEORY":"SGP4","COUNTRY_CODE":"US","GP_ID":"184349603","ECCENTRICITY":"0.00009470","OBJECT_ID":"2021-044AS","MEAN_ANOMALY":"279.3026","MEAN_MOTION":"15.06374009","LAUNCH_DATE":"2021-05-26"},{"GP_ID":"184323504","ECCENTRICITY":"0.00007770","OBJECT_ID":"2021-044AT","MEAN_ELEMENT_THEORY":"SGP4","DECAY_DATE":null,"NORAD_CAT_ID":"48679","APOAPSIS":"547.814","COUNTRY_CODE":"US","LAUNCH_DATE":"2021-05-26","MEAN_ANOMALY":"293.5071","MEAN_MOTION":"15.06379651","CLASSIFICATION_TYPE":"U","SEMIMAJOR_AXIS":"6925.411","REV_AT_EPOCH":"1708","PERIAPSIS":"546.738","OBJECT_TYPE":"PAYLOAD","MEAN_MOTION_DDOT":"0.0000000000000","TLE_LINE2":"2 48679  53.0527 286.2979 0000777  88.2643 293.5071 15.06379651 17089","MEAN_MOTION_DOT":"0.00032238","SITE":"AFETR","OBJECT_NAME":"STARLINK-2648","EPOCH":"2021-09-08T22:00:00.999936","TIME_SYSTEM":"UTC","TLE_LINE1":"1 48679U 21044AT  21251.91667824  .00032238  00000-0  21745-2 0  9998","BSTAR":"0.00217450000000","RCS_SIZE":"LARGE","EPHEMERIS_TYPE":"0","CENTER_NAME":"EARTH","RA_OF_ASC_NODE":"286.2979","ARG_OF_PERICENTER":"88.2643","FILE":"3111108","REF_FRAME":"TEME","INCLINATION":"53.0527","ELEMENT_SET_NO":"999","PERIOD":"95.593"},{"TIME_SYSTEM":"UTC","OBJECT_NAME":"STARLINK-2649","EPOCH":"2021-09-08T22:00:00.999936","TLE_LINE1":"1 48680U 21044AU  21251.91667824  .00031749  00000-0  21427-2 0  9993","RCS_SIZE":"LARGE","BSTAR":"0.00214270000000","EPHEMERIS_TYPE":"0","RA_OF_ASC_NODE":"286.2960","CENTER_NAME":"EARTH","ARG_OF_PERICENTER":"84.9557","FILE":"3111150","REF_FRAME":"TEME","ELEMENT_SET_NO":"999","PERIOD":"95.594","INCLINATION":"53.0539","OBJECT_ID":"2021-044AU","ECCENTRICITY":"0.00014120","GP_ID":"184324486","COUNTRY_CODE":"US","DECAY_DATE":null,"MEAN_ELEMENT_THEORY":"SGP4","APOAPSIS":"548.297","NORAD_CAT_ID":"48680","LAUNCH_DATE":"2021-05-26","MEAN_MOTION":"15.06365620","MEAN_ANOMALY":"316.8778","SEMIMAJOR_AXIS":"6925.454","CLASSIFICATION_TYPE":"U","REV_AT_EPOCH":"1714","OBJECT_TYPE":"PAYLOAD","PERIAPSIS":"546.341","MEAN_MOTION_DDOT":"0.0000000000000","SITE":"AFETR","TLE_LINE2":"2 48680  53.0539 286.2960 0001412  84.9557 316.8778 15.06365620 17149","MEAN_MOTION_DOT":"0.00031749"},{"CENTER_NAME":"EARTH","RA_OF_ASC_NODE":"262.2771","FILE":"3111252","ARG_OF_PERICENTER":"57.1987","REF_FRAME":"TEME","PERIOD":"91.978","ELEMENT_SET_NO":"999","INCLINATION":"53.0436","TIME_SYSTEM":"UTC","EPOCH":"2021-09-08T22:00:00.999936","OBJECT_NAME":"STARLINK-2725","RCS_SIZE":"LARGE","TLE_LINE1":"1 48681U 21044AV  21251.91667824 -.01110959  00000-0 -11946-1 0  9992","BSTAR":"-0.01194600000000","EPHEMERIS_TYPE":"0","REV_AT_EPOCH":"366","CLASSIFICATION_TYPE":"U","SEMIMAJOR_AXIS":"6749.686","OBJECT_TYPE":"PAYLOAD","PERIAPSIS":"370.613","TLE_LINE2":"2 48681  53.0436 262.2771 0001390  57.1987 134.1029 15.65587809  3666","MEAN_MOTION_DOT":"-0.01110959","SITE":"AFETR","MEAN_MOTION_DDOT":"0.0000000000000","OBJECT_ID":"2021-044AV","ECCENTRICITY":"0.00013900","GP_ID":"184349415","COUNTRY_CODE":"US","NORAD_CAT_ID":"48681","APOAPSIS":"372.489","DECAY_DATE":null,"MEAN_ELEMENT_THEORY":"SGP4","LAUNCH_DATE":"2021-05-26","MEAN_MOTION":"15.65587809","MEAN_ANOMALY":"134.1029"},{"EPOCH":"2021-09-08T22:00:00.999936","OBJECT_NAME":"STARLINK-2743","TIME_SYSTEM":"UTC","EPHEMERIS_TYPE":"0","TLE_LINE1":"1 48682U 21044AW  21251.91667824  .00085506  00000-0  60745-3 0  9992","BSTAR":"0.00060745000000","RCS_SIZE":"LARGE","FILE":"3111252","ARG_OF_PERICENTER":"3.0080","RA_OF_ASC_NODE":"262.1790","CENTER_NAME":"EARTH","INCLINATION":"53.0448","PERIOD":"91.534","ELEMENT_SET_NO":"999","REF_FRAME":"TEME","APOAPSIS":"352.569","NORAD_CAT_ID":"48682","DECAY_DATE":null,"MEAN_ELEMENT_THEORY":"SGP4","COUNTRY_CODE":"US","ECCENTRICITY":"0.00041260","GP_ID":"184349925","OBJECT_ID":"2021-044AW","MEAN_ANOMALY":"233.1268","MEAN_MOTION":"15.73188580","LAUNCH_DATE":"2021-05-26","REV_AT_EPOCH":"368","CLASSIFICATION_TYPE":"U","SEMIMAJOR_AXIS":"6727.928","TLE_LINE2":"2 48682  53.0448 262.1790 0004126   3.0080 233.1268 15.73188580  3683","MEAN_MOTION_DOT":"0.00085506","SITE":"AFETR","MEAN_MOTION_DDOT":"0.0000000000000","PERIAPSIS":"347.017","OBJECT_TYPE":"PAYLOAD"},{"EPHEMERIS_TYPE":"0","TLE_LINE1":"1 48683U 21044AX  21251.91667824  .00086954  00000-0  61772-3 0  9992","RCS_SIZE":"LARGE","BSTAR":"0.00061772000000","TIME_SYSTEM":"UTC","OBJECT_NAME":"STARLINK-2756","EPOCH":"2021-09-08T22:00:00.999936","ELEMENT_SET_NO":"999","PERIOD":"91.534","INCLINATION":"53.0448","REF_FRAME":"TEME","ARG_OF_PERICENTER":"4.6900","FILE":"3111252","CENTER_NAME":"EARTH","RA_OF_ASC_NODE":"262.1781","MEAN_MOTION":"15.73183404","MEAN_ANOMALY":"232.1508","LAUNCH_DATE":"2021-05-26","COUNTRY_CODE":"US","DECAY_DATE":null,"MEAN_ELEMENT_THEORY":"SGP4","NORAD_CAT_ID":"48683","APOAPSIS":"352.441","OBJECT_ID":"2021-044AX","ECCENTRICITY":"0.00039150","GP_ID":"184349832","MEAN_MOTION_DDOT":"0.0000000000000","MEAN_MOTION_DOT":"0.00086954","TLE_LINE2":"2 48683  53.0448 262.1781 0003915   4.6900 232.1508 15.73183404  3683","SITE":"AFETR","OBJECT_TYPE":"PAYLOAD","PERIAPSIS":"347.174","SEMIMAJOR_AXIS":"6727.942","CLASSIFICATION_TYPE":"U","REV_AT_EPOCH":"368"}];
